*******************************************************************************
Ephemeris / WWW_USER Fri Mar  7 09:55:25 2025 Pasadena, USA      / Horizons    
*******************************************************************************
Target body name: 62412 (2000 SY178)              {source: JPL#46}
Center body name: Earth (399)                     {source: DE441}
Center-site name: Mauna Kea
*******************************************************************************
Start time      : A.D. 2018-Aug-18 04:58:00.0000 UT      
Stop  time      : A.D. 2018-Aug-18 15:53:00.0000 UT      
Step-size       : 1 minutes
*******************************************************************************
Target pole/equ : undefined
Target radii    : 5.187 km                                                     
Center geodetic : 204.5278, 19.8260847, 4.21024   {E-lon(deg),Lat(deg),Alt(km)}
Center cylindric: 204.5278, 6006.35451, 2151.0229 {E-lon(deg),Dxy(km),Dz(km)}
Center pole/equ : ITRF93                          {East-longitude positive}
Center radii    : 6378.137, 6378.137, 6356.752 km {Equator_a, b, pole_c}       
Target primary  : Sun
Vis. interferer : MOON (R_eq= 1737.400) km        {source: DE441}
Rel. light bend : Sun                             {source: DE441}
Rel. lght bnd GM: 1.3271E+11 km^3/s^2                                          
Small-body perts: Yes                             {source: SB441-N16}
Atmos refraction: NO (AIRLESS)
RA format       : HMS
Time format     : CAL 
Calendar mode   : Mixed Julian/Gregorian
RTS-only print  : NO       
EOP file        : eop.250306.p250602                                           
EOP coverage    : DATA-BASED 1962-JAN-20 TO 2025-MAR-06. PREDICTS-> 2025-JUN-01
Units conversion: 1 au= 149597870.700 km, c= 299792.458 km/s, 1 day= 86400.0 s 
Table cut-offs 1: Elevation (-90.0deg=NO ),Airmass (>38.000=NO), Daylight (YES)
Table cut-offs 2: Solar elongation (  0.0,180.0=NO ),Local Hour Angle( 0.0=NO )
Table cut-offs 3: RA/DEC angular rate (     0.0=NO )                           
*******************************************************************************
Initial IAU76/J2000 heliocentric ecliptic osculating elements (au, days, deg.):
  EPOCH=  2458170.5 ! 2018-Feb-21.00 (TDB)         Residual RMS= .27602        
   EC= .08138541630493452  QR= 2.896136740642169   TP= 2458420.7194902785      
   OM= 329.1508619589129   W=  163.0731028483118   IN= 4.736237123453259       
  Equivalent ICRF heliocentric cartesian coordinates (au, au/d):
   X= 4.513940497926217E-01  Y= 2.603132519717001E+00  Z= 1.377127424929858E+00
  VX=-1.018381435292277E-02 VY= 1.034394081524039E-03 VZ= 5.207836918344824E-05
Asteroid physical parameters (km, seconds, rotational period in hours):        
   GM= n.a.                RAD= 5.187              ROTPER= 3.33                
   H= 13.88                G= .150                 B-V= n.a.                   
                           ALBEDO= .065            STYP= n.a.                  
*******************************************************************************
 Date__(UT)__HR:MN     R.A._________(ICRF)_________DEC
******************************************************
$$SOE
 2018-Aug-18 13:10     08 29 25.163878 +20 57 53.23288
 2018-Aug-18 13:11     08 29 25.231811 +20 57 52.97798
 2018-Aug-18 13:12     08 29 25.299741 +20 57 52.72309
 2018-Aug-18 13:13     08 29 25.367669 +20 57 52.46820
 2018-Aug-18 13:14     08 29 25.435593 +20 57 52.21332
 2018-Aug-18 13:15     08 29 25.503516 +20 57 51.95844
 2018-Aug-18 13:16     08 29 25.571435 +20 57 51.70357
 2018-Aug-18 13:17     08 29 25.639352 +20 57 51.44870
 2018-Aug-18 13:18     08 29 25.707266 +20 57 51.19384
 2018-Aug-18 13:19     08 29 25.775177 +20 57 50.93898
 2018-Aug-18 13:20     08 29 25.843085 +20 57 50.68413
 2018-Aug-18 13:21     08 29 25.910991 +20 57 50.42929
 2018-Aug-18 13:22     08 29 25.978894 +20 57 50.17444
 2018-Aug-18 13:23     08 29 26.046794 +20 57 49.91961
 2018-Aug-18 13:24     08 29 26.114692 +20 57 49.66478
 2018-Aug-18 13:25     08 29 26.182586 +20 57 49.40995
 2018-Aug-18 13:26     08 29 26.250478 +20 57 49.15513
 2018-Aug-18 13:27     08 29 26.318367 +20 57 48.90032
 2018-Aug-18 13:28     08 29 26.386253 +20 57 48.64550
 2018-Aug-18 13:29     08 29 26.454137 +20 57 48.39070
 2018-Aug-18 13:30     08 29 26.522017 +20 57 48.13589
 2018-Aug-18 13:31     08 29 26.589895 +20 57 47.88110
 2018-Aug-18 13:32     08 29 26.657770 +20 57 47.62630
 2018-Aug-18 13:33     08 29 26.725642 +20 57 47.37152
 2018-Aug-18 13:34     08 29 26.793511 +20 57 47.11673
 2018-Aug-18 13:35     08 29 26.861378 +20 57 46.86195
 2018-Aug-18 13:36     08 29 26.929241 +20 57 46.60718
 2018-Aug-18 13:37     08 29 26.997102 +20 57 46.35240
 2018-Aug-18 13:38     08 29 27.064960 +20 57 46.09764
 2018-Aug-18 13:39     08 29 27.132815 +20 57 45.84287
 2018-Aug-18 13:40     08 29 27.200667 +20 57 45.58811
 2018-Aug-18 13:41     08 29 27.268517 +20 57 45.33336
 2018-Aug-18 13:42     08 29 27.336363 +20 57 45.07861
 2018-Aug-18 13:43     08 29 27.404207 +20 57 44.82386
 2018-Aug-18 13:44     08 29 27.472048 +20 57 44.56912
 2018-Aug-18 13:45     08 29 27.539885 +20 57 44.31438
 2018-Aug-18 13:46     08 29 27.607720 +20 57 44.05964
 2018-Aug-18 13:47     08 29 27.675552 +20 57 43.80491
 2018-Aug-18 13:48     08 29 27.743381 +20 57 43.55018
 2018-Aug-18 13:49     08 29 27.811208 +20 57 43.29545
 2018-Aug-18 13:50     08 29 27.879031 +20 57 43.04073
 2018-Aug-18 13:51     08 29 27.946852 +20 57 42.78601
 2018-Aug-18 13:52     08 29 28.014669 +20 57 42.53129
 2018-Aug-18 13:53     08 29 28.082484 +20 57 42.27658
 2018-Aug-18 13:54     08 29 28.150295 +20 57 42.02187
 2018-Aug-18 13:55     08 29 28.218104 +20 57 41.76717
 2018-Aug-18 13:56     08 29 28.285910 +20 57 41.51246
 2018-Aug-18 13:57     08 29 28.353713 +20 57 41.25776
 2018-Aug-18 13:58     08 29 28.421513 +20 57 41.00306
 2018-Aug-18 13:59     08 29 28.489310 +20 57 40.74837
 2018-Aug-18 14:00     08 29 28.557104 +20 57 40.49368
 2018-Aug-18 14:01     08 29 28.624895 +20 57 40.23899
 2018-Aug-18 14:02     08 29 28.692683 +20 57 39.98430
 2018-Aug-18 14:03     08 29 28.760468 +20 57 39.72962
 2018-Aug-18 14:04     08 29 28.828251 +20 57 39.47494
 2018-Aug-18 14:05     08 29 28.896030 +20 57 39.22026
 2018-Aug-18 14:06     08 29 28.963806 +20 57 38.96558
 2018-Aug-18 14:07     08 29 29.031580 +20 57 38.71091
 2018-Aug-18 14:08     08 29 29.099350 +20 57 38.45624
 2018-Aug-18 14:09     08 29 29.167117 +20 57 38.20157
 2018-Aug-18 14:10     08 29 29.234882 +20 57 37.94690
 2018-Aug-18 14:11     08 29 29.302643 +20 57 37.69224
 2018-Aug-18 14:12     08 29 29.370402 +20 57 37.43757
 2018-Aug-18 14:13     08 29 29.438157 +20 57 37.18291
 2018-Aug-18 14:14     08 29 29.505910 +20 57 36.92825
 2018-Aug-18 14:15     08 29 29.573659 +20 57 36.67360
 2018-Aug-18 14:16     08 29 29.641406 +20 57 36.41894
 2018-Aug-18 14:17     08 29 29.709149 +20 57 36.16429
 2018-Aug-18 14:18     08 29 29.776890 +20 57 35.90964
 2018-Aug-18 14:19     08 29 29.844627 +20 57 35.65499
 2018-Aug-18 14:20     08 29 29.912362 +20 57 35.40034
 2018-Aug-18 14:21  r  08 29 29.980093 +20 57 35.14569
 2018-Aug-18 14:22     08 29 30.047821 +20 57 34.89104
 2018-Aug-18 14:23     08 29 30.115547 +20 57 34.63640
 2018-Aug-18 14:24     08 29 30.183269 +20 57 34.38176
 2018-Aug-18 14:25     08 29 30.250989 +20 57 34.12711
 2018-Aug-18 14:26     08 29 30.318705 +20 57 33.87247
 2018-Aug-18 14:27     08 29 30.386418 +20 57 33.61783
 2018-Aug-18 14:28     08 29 30.454129 +20 57 33.36319
 2018-Aug-18 14:29     08 29 30.521836 +20 57 33.10856
 2018-Aug-18 14:30     08 29 30.589540 +20 57 32.85392
 2018-Aug-18 14:31     08 29 30.657242 +20 57 32.59928
 2018-Aug-18 14:32     08 29 30.724940 +20 57 32.34465
 2018-Aug-18 14:33     08 29 30.792635 +20 57 32.09001
 2018-Aug-18 14:34     08 29 30.860327 +20 57 31.83538
 2018-Aug-18 14:35     08 29 30.928016 +20 57 31.58075
 2018-Aug-18 14:36     08 29 30.995702 +20 57 31.32611
 2018-Aug-18 14:37     08 29 31.063385 +20 57 31.07148
 2018-Aug-18 14:38     08 29 31.131065 +20 57 30.81685
 2018-Aug-18 14:39     08 29 31.198742 +20 57 30.56222
 2018-Aug-18 14:40     08 29 31.266416 +20 57 30.30759
 2018-Aug-18 14:41     08 29 31.334087 +20 57 30.05296
 2018-Aug-18 14:42     08 29 31.401755 +20 57 29.79833
 2018-Aug-18 14:43     08 29 31.469419 +20 57 29.54369
 2018-Aug-18 14:44     08 29 31.537081 +20 57 29.28906
 2018-Aug-18 14:45     08 29 31.604740 +20 57 29.03443
 2018-Aug-18 14:46     08 29 31.672395 +20 57 28.77980
 2018-Aug-18 14:47 A   08 29 31.740048 +20 57 28.52517
 2018-Aug-18 14:48 A   08 29 31.807697 +20 57 28.27054
 2018-Aug-18 14:49 A   08 29 31.875344 +20 57 28.01591
 2018-Aug-18 14:50 A   08 29 31.942987 +20 57 27.76128
 2018-Aug-18 14:51 A   08 29 32.010627 +20 57 27.50664
 2018-Aug-18 14:52 A   08 29 32.078265 +20 57 27.25201
 2018-Aug-18 14:53 A   08 29 32.145899 +20 57 26.99738
 2018-Aug-18 14:54 A   08 29 32.213530 +20 57 26.74274
 2018-Aug-18 14:55 A   08 29 32.281158 +20 57 26.48811
 2018-Aug-18 14:56 A   08 29 32.348783 +20 57 26.23347
 2018-Aug-18 14:57 A   08 29 32.416405 +20 57 25.97884
 2018-Aug-18 14:58 A   08 29 32.484024 +20 57 25.72420
 2018-Aug-18 14:59 A   08 29 32.551639 +20 57 25.46956
 2018-Aug-18 15:00 A   08 29 32.619252 +20 57 25.21492
 2018-Aug-18 15:01 A   08 29 32.686862 +20 57 24.96028
 2018-Aug-18 15:02 A   08 29 32.754468 +20 57 24.70564
 2018-Aug-18 15:03 A   08 29 32.822072 +20 57 24.45100
 2018-Aug-18 15:04 A   08 29 32.889672 +20 57 24.19635
 2018-Aug-18 15:05 A   08 29 32.957270 +20 57 23.94171
 2018-Aug-18 15:06 A   08 29 33.024864 +20 57 23.68706
 2018-Aug-18 15:07 A   08 29 33.092455 +20 57 23.43241
 2018-Aug-18 15:08 A   08 29 33.160043 +20 57 23.17776
 2018-Aug-18 15:09 A   08 29 33.227629 +20 57 22.92311
 2018-Aug-18 15:10 A   08 29 33.295211 +20 57 22.66846
 2018-Aug-18 15:11 A   08 29 33.362790 +20 57 22.41381
 2018-Aug-18 15:12 A   08 29 33.430365 +20 57 22.15915
